H1 CPF 01  gfz 2022 07 07 12  6882 terrasarx 
H2 0702601  6201 31698    2022 07 07 00 59 42 2022 07 12 00 00 42   120 1 1  0 0 0
H9
10 0 59771  71982.000000  0   -5961247.688   3177810.226   1342940.145
10 0 59771  72102.000000  0   -5979308.992   3391849.199    446146.713
10 0 59771  72222.000000  0   -5889629.164   3545972.487   -458503.390
10 0 59771  72342.000000  0   -5694915.408   3635654.671  -1355087.544
10 0 59771  72462.000000  0   -5399796.072   3657574.749  -2227844.889
10 0 59771  72582.000000  0   -5010709.475   3609703.809  -3061462.144
10 0 59771  72702.000000  0   -4535757.967   3491365.737  -3841347.131
10 0 59771  72822.000000  0   -3984530.812   3303269.516  -4553884.911
10 0 59771  72942.000000  0   -3367902.610   3047513.600  -5186672.015
10 0 59771  73062.000000  0   -2697811.789   2727562.503  -5728724.456
10 0 59771  73182.000000  0   -1987025.916   2348197.782  -6170659.235
10 0 59771  73302.000000  0   -1248895.210   1915442.962  -6504846.311
10 0 59771  73422.000000  0    -497102.556   1436465.242  -6725527.829
10 0 59771  73542.000000  0     254586.297    919456.242  -6828907.156
10 0 59771  73662.000000  0     992568.176    373493.872  -6813207.158
10 0 59771  73782.000000  0    1703643.784   -191613.845  -6678698.993
10 0 59771  73902.000000  0    2375248.438   -765501.059  -6427696.479
10 0 59771  74022.000000  0    2995669.418  -1337429.120  -6064521.070
10 0 59771  74142.000000  0    3554248.103  -1896482.258  -5595434.842
10 0 59771  74262.000000  0    4041564.155  -2431771.788  -5028544.346
10 0 59771  74382.000000  0    4449599.049  -2932647.329  -4373671.301
10 0 59771  74502.000000  0    4771873.140  -3388908.612  -3642192.448
10 0 59771  74622.000000  0    5003555.956  -3791013.880  -2846851.349
10 0 59771  74742.000000  0    5141547.047  -4130281.673  -2001542.321
10 0 59771  74862.000000  0    5184523.246  -4399079.868  -1121069.626
10 0 59771  74982.000000  0    5132951.470  -4590998.183   -220886.539
10 0 59771  75102.000000  0    4989064.865  -4700999.311    683181.198
10 0 59771  75222.000000  0    4756802.792  -4725543.146   1575221.825
10 0 59771  75342.000000  0    4441715.708  -4662680.695   2439526.711
10 0 59771  75462.000000  0    4050838.189  -4512115.874   3260875.095
10 0 59771  75582.000000  0    3592533.259  -4275233.895   4024809.218
10 0 59771  75702.000000  0    3076310.964  -3955095.247   4717893.825
10 0 59771  75822.000000  0    2512627.203  -3556394.876   5327954.048
10 0 59771  75942.000000  0    1912668.255  -3085389.686   5844288.155
10 0 59771  76062.000000  0    1288124.517  -2549794.586   6257851.987
10 0 59771  76182.000000  0     650959.953  -1958651.064   6561411.065
10 0 59771  76302.000000  0      13181.323  -1322171.138   6749660.836
10 0 59771  76422.000000  0    -613387.727   -651558.747   6819313.968
10 0 59771  76542.000000  0   -1217324.747     41188.701   6769153.881
10 0 59771  76662.000000  0   -1787815.921    743494.574   6600054.612
10 0 59771  76782.000000  0   -2314849.137   1442430.618   6314966.517
10 0 59771  76902.000000  0   -2789390.186   2124953.954   5918868.065
10 0 59771  77022.000000  0   -3203539.122   2778150.400   5418684.729
10 0 59771  77142.000000  0   -3550665.225   3389480.632   4823174.421
10 0 59771  77262.000000  0   -3825517.569   3947023.841   4142779.916
10 0 59771  77382.000000  0   -4024308.423   4439715.174   3389450.290
10 0 59771  77502.000000  0   -4144767.644   4857571.485   2576432.901
10 0 59771  77622.000000  0   -4186165.959   5191899.000   1718038.393
10 0 59771  77742.000000  0   -4149306.600   5435477.805    829384.959
10 0 59771  77862.000000  0   -4036486.644   5582719.330    -73873.617
10 0 59771  77982.000000  0   -3851427.731   5629793.178   -975832.636
10 0 59771  78102.000000  0   -3599176.293   5574717.389  -1860627.320
10 0 59771  78222.000000  0   -3285976.836   5417409.820  -2712720.743
10 0 59771  78342.000000  0   -2919121.832   5159702.079  -3517182.273
10 0 59771  78462.000000  0   -2506784.143   4805313.655  -4259951.760
10 0 59771  78582.000000  0   -2057835.232   4359789.333  -4928083.295
10 0 59771  78702.000000  0   -1581654.557   3830403.156  -5509963.946
10 0 59771  78822.000000  0   -1087934.930   3226032.006  -5995507.736
10 0 59771  78942.000000  0    -586486.513   2556999.109  -6376321.213
10 0 59771  79062.000000  0     -87044.102   1834892.454  -6645836.618
10 0 59771  79182.000000  0     400917.469   1072363.150  -6799414.118
10 0 59771  79302.000000  0     868358.401    282905.921  -6834413.839
10 0 59771  79422.000000  0    1306837.806   -519375.569  -6750236.433
10 0 59771  79542.000000  0    1708662.020  -1320015.414  -6548330.684
10 0 59771  79662.000000  0    2067016.214  -2104439.096  -6232170.966
10 0 59771  79782.000000  0    2376078.840  -2858222.167  -5807204.478
10 0 59771  79902.000000  0    2631116.631  -3567352.330  -5280768.873
10 0 59771  80022.000000  0    2828559.277  -4218491.397  -4661975.845
10 0 59771  80142.000000  0    2966050.122  -4799227.358  -3961562.527
10 0 59771  80262.000000  0    3042473.466  -5298315.132  -3191716.361
10 0 59771  80382.000000  0    3057957.780  -5705903.430  -2365871.258
10 0 59771  80502.000000  0    3013853.704  -6013738.402  -1498476.596
10 0 59771  80622.000000  0    2912687.264  -6215340.127   -604744.319
10 0 59771  80742.000000  0    2758087.464  -6306146.616    299622.789
10 0 59771  80862.000000  0    2554690.452  -6283619.200   1198713.652
10 0 59771  80982.000000  0    2308023.406  -6147309.740   2076697.260
10 0 59771  81102.000000  0    2024369.579  -5898883.828   2918111.832
10 0 59771  81222.000000  0    1710618.884  -5542100.264   3708144.347
10 0 59771  81342.000000  0    1374107.721  -5082749.908   4432896.196
10 0 59771  81462.000000  0    1022452.986  -4528554.798   5079630.141
10 0 59771  81582.000000  0     663383.625  -3889030.658   5636995.441
10 0 59771  81702.000000  0     304572.940  -3175312.986   6095224.945
10 0 59771  81822.000000  0     -46522.791  -2399954.248   6446299.739
10 0 59771  81942.000000  0    -382816.709  -1576698.101   6684082.408
10 0 59771  82062.000000  0    -697732.102   -720233.608   6804418.859
10 0 59771  82182.000000  0    -985329.523    154068.351   6805207.490
10 0 59771  82302.000000  0   -1240418.091   1030431.359   6686433.573
10 0 59771  82422.000000  0   -1458648.741   1892957.520   6450169.145
10 0 59771  82542.000000  0   -1636588.512   2725915.130   6100539.329
10 0 59771  82662.000000  0   -1771774.982   3514026.140   5643654.581
10 0 59771  82782.000000  0   -1862749.305   4242748.330   5087509.652
10 0 59771  82902.000000  0   -1909068.163   4898548.823   4441850.755
10 0 59771  83022.000000  0   -1911293.825   5469162.932   3718009.517
10 0 59771  83142.000000  0   -1870962.286   5943832.424   2928706.986
10 0 59771  83262.000000  0   -1790530.846   6313517.183   2087830.000
10 0 59771  83382.000000  0   -1673304.980   6571076.451   1210184.078
10 0 59771  83502.000000  0   -1523345.748   6711413.725    311227.116
10 0 59771  83622.000000  0   -1345361.186   6731581.871   -593209.901
10 0 59771  83742.000000  0   -1144584.086   6630846.845  -1487211.328
10 0 59771  83862.000000  0    -926638.022   6410703.279  -2355068.477
10 0 59771  83982.000000  0    -697397.514   6074843.011  -3181562.092
10 0 59771  84102.000000  0    -462845.414   5629082.415  -3952231.301
10 0 59771  84222.000000  0    -228930.636   5081250.416  -4653626.617
10 0 59771  84342.000000  0      -1429.767   4441038.707  -5273541.137
10 0 59771  84462.000000  0     214184.749   3719819.494  -5801216.428
10 0 59771  84582.000000  0     412866.572   2930433.838  -6227520.279
10 0 59771  84702.000000  0     590104.506   2086956.372  -6545093.232
10 0 59771  84822.000000  0     742017.515   1204442.828  -6748464.064
10 0 59771  84942.000000  0     865434.076    298663.110  -6834134.740
10 0 59771  85062.000000  0     957954.508   -614176.065  -6800634.105
10 0 59771  85182.000000  0    1017995.462  -1517715.271  -6648539.202
10 0 59771  85302.000000  0    1044816.232  -2395727.112  -6380465.077
10 0 59771  85422.000000  0    1038527.349  -3232399.990  -6001026.419
10 0 59771  85542.000000  0    1000079.987  -4012620.531  -5516768.059
10 0 59771  85662.000000  0     931236.561  -4722246.533  -4936061.336
10 0 59771  85782.000000  0     834523.987  -5348365.821  -4268970.930
10 0 59771  85902.000000  0     713168.751  -5879538.744  -3527091.384
10 0 59771  86022.000000  0     571015.382  -6306017.251  -2723353.594
10 0 59771  86142.000000  0     412430.183  -6619935.812  -1871805.147
10 0 59771  86262.000000  0     242191.928  -6815469.899   -987366.088
10 0 59771  86382.000000  0      65371.678  -6888955.363    -85564.452
99
